NORAD_CAT_ID,OBJECT_NAME,OBJECT_TYPE,EPOCH,MEAN_MOTION,ECCENTRICITY,INCLINATION,RA_OF_ASC_NODE,ARG_OF_PERICENTER,MEAN_ANOMALY,BSTAR,MEAN_MOTION_DOT,MEAN_MOTION_DDOT,TLE_LINE0,TLE_LINE1,TLE_LINE2,SEMIMAJOR_AXIS,PERIOD,APOGEE,PERIGEE,DECAYED
54777.0,STARLINK-5468,PAYLOAD,2024-06-13 20:24:06,15.08838663,0.0001105,53.2173,9.3372,94.3334,265.7785,0.00010929,1.452e-05,0.0,0 STARLINK-5468,1 54777U 22175V   24165.85007840  .00001452  00000-0  10929-3 0  9993,2 54777  53.2173   9.3372 0001105  94.3334 265.7785 15.08838663 84235,6917.884,95.438,540.514,538.985,0.0
54777.0,STARLINK-5468,PAYLOAD,2024-06-14 20:14:54,15.08837611,0.0001061,53.2173,4.8787,94.222,265.8894,4.4652e-05,4.23e-06,0.0,0 STARLINK-5468,1 54777U 22175V   24166.84368204  .00000423  00000-0  44652-4 0  9995,2 54777  53.2173   4.8787 0001061  94.2220 265.8894 15.08837611 84389,6917.888,95.438,540.487,539.019,0.0
54777.0,STARLINK-5468,PAYLOAD,2024-06-15 13:44:08,15.08839494,0.0001645,53.219,1.61,98.492,261.6259,6.0089e-06,-1.92e-06,0.0,0 STARLINK-5468,1 54777U 22175V   24167.57232364 -.00000192  00000-0  60089-5 0  9990,2 54777  53.2190   1.6100 0001645  98.4920 261.6259 15.08839494 84495,6917.882,95.438,540.885,538.609,0.0
54777.0,STARLINK-5468,PAYLOAD,2024-06-15 21:41:04,15.0883973,0.0001308,53.2185,0.1218,95.4113,264.7028,8.159e-06,-1.58e-06,0.0,0 STARLINK-5468,1 54777U 22175V   24167.90352318 -.00000158  00000-0  81590-5 0  9991,2 54777  53.2185   0.1218 0001308  95.4113 264.7028 15.08839730 84547,6917.881,95.438,540.651,538.841,0.0
54777.0,STARLINK-5468,PAYLOAD,2024-06-16 11:59:32,15.08835501,0.0001395,53.2193,357.4466,94.7089,265.4063,6.7639e-05,7.89e-06,0.0,0 STARLINK-5468,1 54777U 22175V   24168.49968403  .00000789  00000-0  67639-4 0  9990,2 54777  53.2193 357.4466 0001395  94.7089 265.4063 15.08835501 84638,6917.894,95.438,540.724,538.794,0.0
54777.0,STARLINK-5468,PAYLOAD,2024-06-16 19:56:28,15.08834428,0.000139,53.2191,355.9559,83.405,276.7101,-3.9555e-05,-9.17e-06,0.0,0 STARLINK-5468,1 54777U 22175V   24168.83089058 -.00000917  00000-0 -39555-4 0  9999,2 54777  53.2191 355.9559 0001390  83.4050 276.7101 15.08834428 84680,6917.897,95.438,540.724,538.801,0.0
54777.0,STARLINK-5468,PAYLOAD,2024-06-17 19:47:15,15.08837547,0.0001293,53.2182,351.4955,83.6637,276.4502,5.136e-05,5.3e-06,0.0,0 STARLINK-5468,1 54777U 22175V   24169.82448707  .00000530  00000-0  51360-4 0  9996,2 54777  53.2182 351.4955 0001293  83.6637 276.4502 15.08837547 82670,6917.888,95.438,540.647,538.858,0.0
54777.0,STARLINK-5468,PAYLOAD,2024-06-17 21:22:38,15.08838899,0.000126,53.2182,351.198,78.8065,281.3069,6.2421e-05,7.06e-06,0.0,0 STARLINK-5468,1 54777U 22175V   24169.89072613  .00000706  00000-0  62421-4 0  9997,2 54777  53.2182 351.1980 0001260  78.8065 281.3069 15.08838899 84845,6917.884,95.438,540.62,538.877,0.0
54777.0,STARLINK-5468,PAYLOAD,2024-06-18 11:41:07,15.08808581,0.0001326,53.219,348.519,90.594,269.5204,0.00045226,6.911e-05,0.0,0 STARLINK-5468,1 54777U 22175V   24170.48689375  .00006911  00000-0  45226-3 0  9990,2 54777  53.2190 348.5190 0001326  90.5940 269.5204 15.08808581 82777,6917.976,95.44,540.759,538.924,0.0
54777.0,STARLINK-5468,PAYLOAD,2024-06-18 18:02:39,15.08838342,0.0001282,53.2175,347.3322,84.2508,275.863,0.00012966,1.776e-05,0.0,0 STARLINK-5468,1 54777U 22175V   24170.75184428  .00001776  00000-0  12966-3 0  9998,2 54777  53.2175 347.3322 0001282  84.2508 275.8630 15.08838342 82811,6917.885,95.438,540.637,538.864,0.0
54777.0,STARLINK-5468,PAYLOAD,2024-06-18 21:13:25,15.08840534,0.0001228,53.2175,346.7373,84.6458,275.4674,0.00014566,2.031e-05,0.0,0 STARLINK-5468,1 54777U 22175V   24170.88432237  .00002031  00000-0  14566-3 0  9999,2 54777  53.2175 346.7373 0001228  84.6458 275.4674 15.08840534 84999,6917.879,95.438,540.593,538.894,0.0
54777.0,STARLINK-5468,PAYLOAD,2024-06-19 11:31:53,15.08839841,0.00013,53.2158,344.0603,84.809,275.305,3.6022e-05,2.85e-06,0.0,0 STARLINK-5468,1 54777U 22175V   24171.48048508  .00000285  00000-0  36022-4 0  9991,2 54777  53.2158 344.0603 0001300  84.8090 275.3050 15.08839841 85089,6917.881,95.438,540.645,538.847,0.0
54777.0,STARLINK-5468,PAYLOAD,2024-06-19 17:53:26,15.08830753,0.000118,53.2161,342.8706,95.9885,264.1241,0.0001491,2.085e-05,0.0,0 STARLINK-5468,1 54777U 22175V   24171.74544772  .00002085  00000-0  14910-3 0  9995,2 54777  53.2161 342.8706 0001180  95.9885 264.1241 15.08830753 82969,6917.909,95.438,540.59,538.957,0.0
54777.0,STARLINK-5468,PAYLOAD,2024-06-20 11:22:40,15.08840758,0.0001501,53.219,339.6003,105.3026,254.8132,1.5601e-06,-2.63e-06,0.0,0 STARLINK-5468,1 54777U 22175V   24172.47408447 -.00000263  00000-0  15601-5 0  9991,2 54777  53.2190 339.6003 0001501 105.3026 254.8132 15.08840758 85239,6917.878,95.438,540.781,538.705,0.0
54777.0,STARLINK-5468,PAYLOAD,2024-06-20 17:44:13,15.08840367,0.0001484,53.2191,338.4108,105.3206,254.795,-3.9897e-06,-3.51e-06,0.0,0 STARLINK-5468,1 54777U 22175V   24172.73904474 -.00000351  00000-0 -39897-5 0  9993,2 54777  53.2191 338.4108 0001484 105.3206 254.7950 15.08840367 83111,6917.879,95.438,540.771,538.718,0.0
54777.0,STARLINK-5468,PAYLOAD,2024-06-21 14:24:14,15.08837372,0.0001471,53.2198,334.5458,98.9561,261.1598,2.7417e-05,1.48e-06,0.0,0 STARLINK-5468,1 54777U 22175V   24173.60016709  .00000148  00000-0  27417-4 0  9991,2 54777  53.2198 334.5458 0001471  98.9561 261.1598 15.08837372 85406,6917.888,95.438,540.771,538.736,0.0
54777.0,STARLINK-5468,PAYLOAD,2024-06-21 20:45:47,15.08837125,0.0001314,53.2191,333.3568,93.9796,266.1346,2.9914e-05,1.88e-06,0.0,0 STARLINK-5468,1 54777U 22175V   24173.86512748  .00000188  00000-0  29914-4 0  9991,2 54777  53.2191 333.3568 0001314  93.9796 266.1346 15.08837125 83285,6917.889,95.438,540.663,538.845,0.0
54777.0,STARLINK-5468,PAYLOAD,2024-06-22 14:15:02,15.08830945,0.0001281,53.2185,330.0857,87.912,272.2018,3.6242e-05,2.89e-06,0.0,0 STARLINK-5468,1 54777U 22175V   24174.59377340  .00000289  00000-0  36242-4 0  9993,2 54777  53.2185 330.0857 0001281  87.9120 272.2018 15.08830945 85559,6917.908,95.438,540.659,538.887,0.0
54777.0,STARLINK-5468,PAYLOAD,2024-06-22 20:36:34,15.08834795,0.0001203,53.2184,328.8942,85.2907,274.8222,1.1815e-05,-1e-06,0.0,0 STARLINK-5468,1 54777U 22175V   24174.85873263 -.00000100  00000-0  11815-4 0  9999,2 54777  53.2184 328.8942 0001203  85.2907 274.8222 15.08834795 85592,6917.896,95.438,540.594,538.929,0.0
54777.0,STARLINK-5468,PAYLOAD,2024-06-23 14:05:48,15.0883658,0.000116,53.2179,325.6232,100.4295,259.6828,4.8427e-05,4.83e-06,0.0,0 STARLINK-5468,1 54777U 22175V   24175.58737153  .00000483  00000-0  48427-4 0  9999,2 54777  53.2179 325.6232 0001160 100.4295 259.6828 15.08836580 85705,6917.891,95.438,540.558,538.953,0.0
54777.0,STARLINK-5468,PAYLOAD,2024-06-23 18:51:58,15.08839498,0.0001168,53.218,324.7311,95.7527,264.3598,7.03e-05,8.31e-06,0.0,0 STARLINK-5468,1 54777U 22175V   24175.78608949  .00000831  00000-0  70300-4 0  9993,2 54777  53.2180 324.7311 0001168  95.7527 264.3598 15.08839498 83578,6917.882,95.438,540.555,538.939,0.0
54777.0,STARLINK-5468,PAYLOAD,2024-06-24 13:56:36,15.08834183,0.000116,53.218,321.1628,90.8649,269.2476,4.4461e-05,4.2e-06,0.0,0 STARLINK-5468,1 54777U 22175V   24176.58097563  .00000420  00000-0  44461-4 0  9999,2 54777  53.2180 321.1628 0001160  90.8649 269.2476 15.08834183 85851,6917.898,95.438,540.566,538.961,0.0
54777.0,STARLINK-5468,PAYLOAD,2024-06-24 17:07:22,15.08834873,0.000117,53.2177,320.5679,91.4588,268.6538,4.9948e-05,5.07e-06,0.0,0 STARLINK-5468,1 54777U 22175V   24176.71345541  .00000507  00000-0  49948-4 0  9997,2 54777  53.2177 320.5679 0001170  91.4588 268.6538 15.08834873 83717,6917.896,95.438,540.57,538.952,0.0
54777.0,STARLINK-5468,PAYLOAD,2024-06-25 13:47:23,15.08839105,0.0001199,53.2176,316.7021,89.0126,271.1004,1.9222e-05,1.8e-07,0.0,0 STARLINK-5468,1 54777U 22175V   24177.57457557  .00000018  00000-0  19222-4 0  9992,2 54777  53.2176 316.7021 0001199  89.0126 271.1004 15.08839105 86001,6917.883,95.438,540.578,538.919,0.0
54777.0,STARLINK-5468,PAYLOAD,2024-06-25 16:58:09,15.08842632,0.0001266,53.218,316.1077,83.9567,276.157,5.0938e-05,5.23e-06,0.0,0 STARLINK-5468,1 54777U 22175V   24177.70705271  .00000523  00000-0  50938-4 0  9996,2 54777  53.2180 316.1077 0001266  83.9567 276.1570 15.08842632 86022,6917.872,95.437,540.613,538.862,0.0
54777.0,STARLINK-5468,PAYLOAD,2024-06-26 02:30:27,15.08853319,0.0001326,53.2182,314.3231,77.0431,283.0709,0.00015652,2.205e-05,0.0,0 STARLINK-5468,1 54777U 22175V   24178.10448114  .00002205  00000-0  15652-3 0  9993,2 54777  53.2182 314.3231 0001326  77.0431 283.0709 15.08853319 83928,6917.84,95.437,540.622,538.787,0.0
54777.0,STARLINK-5468,PAYLOAD,2024-06-26 16:48:56,15.0883644,0.0001436,53.2183,311.6478,79.471,280.6444,3.2836e-05,2.35e-06,0.0,0 STARLINK-5468,1 54777U 22175V   24178.70065531  .00000235  00000-0  32836-4 0  9992,2 54777  53.2183 311.6478 0001436  79.4710 280.6444 15.08836440 84016,6917.891,95.438,540.75,538.763,0.0
54777.0,STARLINK-5468,PAYLOAD,2024-06-27 11:53:33,15.08860923,0.0001442,53.2183,308.0741,131.9473,228.1642,-0.00028145,-4.767e-05,0.0,0 STARLINK-5468,1 54777U 22175V   24179.49553153 -.00004767  00000-0 -28145-3 0  9994,2 54777  53.2183 308.0741 0001442 131.9473 228.1642 15.08860923 84139,6917.816,95.436,540.679,538.684,0.0
54777.0,STARLINK-5468,PAYLOAD,2024-06-27 16:39:43,15.08843061,0.0001125,53.2175,307.1861,89.2659,270.8462,-3.6061e-05,-8.62e-06,0.0,0 STARLINK-5468,1 54777U 22175V   24179.69425359 -.00000862  00000-0 -36061-4 0  9991,2 54777  53.2175 307.1861 0001125  89.2659 270.8462 15.08843061 84163,6917.871,95.437,540.514,538.958,0.0
54777.0,STARLINK-5468,PAYLOAD,2024-06-28 14:55:06,15.08845541,0.0001205,53.2176,303.0232,86.0543,274.0587,0.00013112,1.8e-05,0.0,0 STARLINK-5468,1 54777U 22175V   24180.62160619  .00001800  00000-0  13112-3 0  9993,2 54777  53.2176 303.0232 0001205  86.0543 274.0587 15.08845541 86461,6917.863,95.437,540.562,538.895,0.0
